[{"OBJECT_NAME":"STARLINK-35697","OBJECT_ID":"2025-265Z","EPOCH":"2026-03-08T15:16:26.826240","MEAN_MOTION":15.27606942,"ECCENTRICITY":5.195e-5,"INCLINATION":43.0008,"RA_OF_ASC_NODE":283.7659,"ARG_OF_PERICENTER":280.301,"MEAN_ANOMALY":79.7783,"EPHEMERIS_TYPE":0,"CLASSIFICATION_TYPE":"U","NORAD_CAT_ID":66539,"ELEMENT_SET_NO":999,"REV_AT_EPOCH":1695,"BSTAR":0.0017651219,"MEAN_MOTION_DOT":0.00048671,"MEAN_MOTION_DDOT":0},{"OBJECT_NAME":"COSMOS 249 DEB","OBJECT_ID":"1968-091CY","EPOCH":"2026-03-09T21:07:59.374848","MEAN_MOTION":14.52283222,"ECCENTRICITY":0.03386329,"INCLINATION":62.3952,"RA_OF_ASC_NODE":260.6441,"ARG_OF_PERICENTER":176.0549,"MEAN_ANOMALY":184.3323,"EPHEMERIS_TYPE":0,"CLASSIFICATION_TYPE":"U","NORAD_CAT_ID":15535,"ELEMENT_SET_NO":999,"REV_AT_EPOCH":94239,"BSTAR":0.0018935012,"MEAN_MOTION_DOT":0.00016406,"MEAN_MOTION_DDOT":0}]
